KUIPER-00079            
1 64826U 25151L   25267.00002315  .00043771  00000+0  46073-2 0  9996
2 64826  51.8979 317.6219 0012320  49.0451 198.9045 14.88905840  5858
KUIPER-00080            
1 64827U 25151M   25267.00002315 -.00924531  00000+0 -10845+0 0  9996
2 64827  51.8975 317.7620 0006066  69.7866 260.0792 14.87397873  1307
KUIPER-00082            
1 64828U 25151N   25267.00002315 -.01069187  00000+0 -45033-1 0  9994
2 64828  51.8848 311.5784 0006511  34.2770  53.8883 15.25756325  4380
KUIPER-00083            
1 64829U 25151P   25267.00002315  .00065136  00000+0  43612-2 0  9994
2 64829  51.8852 314.4385 0009944  44.0932   3.4230 15.06258156  5439
KUIPER-00084            
1 64830U 25151Q   25266.88083953  .00005639  00000+0  76927-3 0  9996
2 64830  51.9000 323.1207 0011510  31.6781 328.4872 14.79839277 10530
KUIPER-00085            
1 64831U 25151R   25267.00002315 -.01717383  00000+0 -77119-1 0  9996
2 64831  51.8864 311.6338 0008308  36.2108 344.7570 15.24090273  5648
KUIPER-00086            
1 64832U 25151S   25267.00002315  .00052523  00000+0  43981-2 0  9993
2 64832  51.8920 316.0268 0010471  47.8784 280.2152 14.97882820  5696
KUIPER-00087            
1 64833U 25151T   25266.42092957  .00041172  00000+0  11184-2 0  9998
2 64833  51.8782 313.8726 0007440  34.1727 325.9737 15.37146507 10619
